STARLINK-34381          
1 64282U 25120AC  25163.83334491 -.01571732  00000+0 -62591-2 0  9996
2 64282  53.1540 298.5430 0000633  56.5332 254.6851 15.88543256  2436
HULIANWANG DIGUI-30     
1 64283U 25121A   25162.46822515  .00000112  00000+0  11111-3 0  9994
2 64283  86.4984 140.5946 0009188 202.6768 157.3986 13.68784604   770
HULIANWANG DIGUI-31     
1 64284U 25121B   25163.63754626  .00000004  00000+0 -14123-4 0  9990
2 64284  86.5007 140.1716 0009017 199.1483 160.9338 13.68842408   930
HULIANWANG DIGUI-32     
1 64285U 25121C   25163.34446254  .00000105  00000+0  10244-3 0  9994
2 64285  86.4948 140.2679 0008489 194.7300 165.3613 13.68996873   890
HULIANWANG DIGUI-33     
1 64286U 25121D   25163.34385138  .00000094  00000+0  89159-4 0  9997
2 64286  86.5005 140.2761 0007806 188.0545 172.0490 13.69118622   894
HULIANWANG DIGUI-34     
1 64287U 25121E   25162.32040448 -.00000121  00000+0 -15919-3 0  9992
2 64287  86.4987 140.6467 0007496 190.6308 169.4694 13.69194895   758
CZ-6A R/B               
1 64288U 25121F   25163.37318159  .00000058  00000+0  28263-4 0  9990
2 64288  86.5079 140.1768 0104421  94.8452 266.4654 13.94025325   913
SXM-10                  
1 64290U 25122A   25162.97928096  .00001821  00000+0  54160-3 0  9999
2 64290  26.8587 159.5274 7167530 178.9361 311.5098  2.42256710   181
QPS-SAR-11 (YAMATSUMI-I)
1 64340U 25125A   25163.87046131  .00001439  00000+0  13805-3 0  9995
2 64340  42.0108  60.8656 0008938 281.5857  78.3964 14.97068850   183
ELECTRON KICK STAGE R/B 
1 64341U 25125B   25163.89776891  .00121043  10173-4  96070-3 0  9997
2 64341  42.0118  60.1712 0219402 278.6901  78.9147 15.45301651   191
2025-125C               
1 64342U 25125C   25163.88945913  .00329040  35064-4  96254-3 0  9997
2 64342  42.0253  60.1155 0253344 245.3764 112.0498 15.55857204   183
ELECTRON R/B            
1 64343U 25125D   25163.14389056  .19862338  62886-5  35037-1 0  9992
2 64343  42.0238  64.6207 0204325 234.1039 277.4123 15.73018143    70
